[{"OBJECT_NAME":"GPS BIIF-4","OBJECT_ID":"2013-023A","EPOCH":"2026-03-04T23:31:44.502816","MEAN_MOTION":2.00564217,"ECCENTRICITY":0.01416203,"INCLINATION":54.5857,"RA_OF_ASC_NODE":273.2171,"ARG_OF_PERICENTER":49.9246,"MEAN_ANOMALY":311.3385,"EPHEMERIS_TYPE":0,"CLASSIFICATION_TYPE":"U","NORAD_CAT_ID":39166,"ELEMENT_SET_NO":999,"REV_AT_EPOCH":9379,"BSTAR":0,"MEAN_MOTION_DOT":-1.6e-7,"MEAN_MOTION_DDOT":0},{"OBJECT_NAME":"INSAT-3D","OBJECT_ID":"2013-038B","EPOCH":"2026-03-06T06:00:35.883648","MEAN_MOTION":1.0027271,"ECCENTRICITY":0.00017018,"INCLINATION":1.6601,"RA_OF_ASC_NODE":83.8888,"ARG_OF_PERICENTER":246.5341,"MEAN_ANOMALY":53.1897,"EPHEMERIS_TYPE":0,"CLASSIFICATION_TYPE":"U","NORAD_CAT_ID":39216,"ELEMENT_SET_NO":999,"REV_AT_EPOCH":4604,"BSTAR":0,"MEAN_MOTION_DOT":-3.44e-6,"MEAN_MOTION_DDOT":0},{"OBJECT_NAME":"GPS BIIF-5","OBJECT_ID":"2014-008A","EPOCH":"2026-03-05T11:27:37.396224","MEAN_MOTION":2.00553167,"ECCENTRICITY":0.00823373,"INCLINATION":53.6378,"RA_OF_ASC_NODE":153.5513,"ARG_OF_PERICENTER":228.3363,"MEAN_ANOMALY":130.9939,"EPHEMERIS_TYPE":0,"CLASSIFICATION_TYPE":"U","NORAD_CAT_ID":39533,"ELEMENT_SET_NO":999,"REV_AT_EPOCH":8760,"BSTAR":0,"MEAN_MOTION_DOT":8.0e-8,"MEAN_MOTION_DDOT":0},{"OBJECT_NAME":"LUCH 5V","OBJECT_ID":"2014-023A","EPOCH":"2026-03-06T00:42:58.841280","MEAN_MOTION":1.00271463,"ECCENTRICITY":0.00030589,"INCLINATION":4.879,"RA_OF_ASC_NODE":70.7602,"ARG_OF_PERICENTER":283.1507,"MEAN_ANOMALY":275.3216,"EPHEMERIS_TYPE":0,"CLASSIFICATION_TYPE":"U","NORAD_CAT_ID":39727,"ELEMENT_SET_NO":999,"REV_AT_EPOCH":4332,"BSTAR":0,"MEAN_MOTION_DOT":-2.73e-6,"MEAN_MOTION_DDOT":0},{"OBJECT_NAME":"GPS BIIF-6","OBJECT_ID":"2014-026A","EPOCH":"2026-03-05T18:07:59.431872","MEAN_MOTION":2.00568639,"ECCENTRICITY":0.00398497,"INCLINATION":56.5458,"RA_OF_ASC_NODE":335.547,"ARG_OF_PERICENTER":324.6009,"MEAN_ANOMALY":35.1717,"EPHEMERIS_TYPE":0,"CLASSIFICATION_TYPE":"U","NORAD_CAT_ID":39741,"ELEMENT_SET_NO":999,"REV_AT_EPOCH":8646,"BSTAR":0,"MEAN_MOTION_DOT":-9.9e-7,"MEAN_MOTION_DDOT":0},{"OBJECT_NAME":"GPS BIIF-7","OBJECT_ID":"2014-045A","EPOCH":"2026-03-04T20:18:09.213408","MEAN_MOTION":2.00551558,"ECCENTRICITY":0.0031508,"INCLINATION":55.2815,"RA_OF_ASC_NODE":92.6206,"ARG_OF_PERICENTER":120.4743,"MEAN_ANOMALY":239.9033,"EPHEMERIS_TYPE":0,"CLASSIFICATION_TYPE":"U","NORAD_CAT_ID":40105,"ELEMENT_SET_NO":999,"REV_AT_EPOCH":8398,"BSTAR":0,"MEAN_MOTION_DOT":5.0e-8,"MEAN_MOTION_DDOT":0},{"OBJECT_NAME":"GSAT0201 (GALILEO 5)","OBJECT_ID":"2014-050A","EPOCH":"2026-03-03T05:40:55.999200","MEAN_MOTION":1.85520013,"ECCENTRICITY":0.1657553,"INCLINATION":48.9889,"RA_OF_ASC_NODE":277.7718,"ARG_OF_PERICENTER":175.2875,"MEAN_ANOMALY":186.5034,"EPHEMERIS_TYPE":0,"CLASSIFICATION_TYPE":"U","NORAD_CAT_ID":40128,"ELEMENT_SET_NO":999,"REV_AT_EPOCH":7635,"BSTAR":0,"MEAN_MOTION_DOT":-2.7e-7,"MEAN_MOTION_DDOT":0},{"OBJECT_NAME":"GSAT0202 (GALILEO 6)","OBJECT_ID":"2014-050B","EPOCH":"2026-03-05T15:33:59.980032","MEAN_MOTION":1.85520801,"ECCENTRICITY":0.16588539,"INCLINATION":49.0031,"RA_OF_ASC_NODE":276.7577,"ARG_OF_PERICENTER":176.1163,"MEAN_ANOMALY":185.3582,"EPHEMERIS_TYPE":0,"CLASSIFICATION_TYPE":"U","NORAD_CAT_ID":40129,"ELEMENT_SET_NO":999,"REV_AT_EPOCH":7856,"BSTAR":0,"MEAN_MOTION_DOT":-3.7e-7,"MEAN_MOTION_DDOT":0},{"OBJECT_NAME":"GPS BIIF-8","OBJECT_ID":"2014-068A","EPOCH":"2026-03-06T05:16:25.689792","MEAN_MOTION":2.00569976,"ECCENTRICITY":0.00628569,"INCLINATION":56.9208,"RA_OF_ASC_NODE":34.9218,"ARG_OF_PERICENTER":68.0586,"MEAN_ANOMALY":292.5929,"EPHEMERIS_TYPE":0,"CLASSIFICATION_TYPE":"U","NORAD_CAT_ID":40294,"ELEMENT_SET_NO":999,"REV_AT_EPOCH":8314,"BSTAR":0,"MEAN_MOTION_DOT":-7.8e-7,"MEAN_MOTION_DDOT":0},{"OBJECT_NAME":"GLONASS-K 2","OBJECT_ID":"2014-075A","EPOCH":"2026-03-01T20:09:56.477664","MEAN_MOTION":2.13101099,"ECCENTRICITY":0.00207353,"INCLINATION":63.617,"RA_OF_ASC_NODE":194.0851,"ARG_OF_PERICENTER":205.716,"MEAN_ANOMALY":154.1408,"EPHEMERIS_TYPE":0,"CLASSIFICATION_TYPE":"U","NORAD_CAT_ID":40315,"ELEMENT_SET_NO":999,"REV_AT_EPOCH":8756,"BSTAR":0,"MEAN_MOTION_DOT":-1.5e-7,"MEAN_MOTION_DDOT":0},{"OBJECT_NAME":"GPS BIIF-9","OBJECT_ID":"2015-013A","EPOCH":"2026-03-05T08:29:44.403360","MEAN_MOTION":2.00557561,"ECCENTRICITY":0.0108751,"INCLINATION":53.1861,"RA_OF_ASC_NODE":208.4703,"ARG_OF_PERICENTER":39.7984,"MEAN_ANOMALY":320.9422,"EPHEMERIS_TYPE":0,"CLASSIFICATION_TYPE":"U","NORAD_CAT_ID":40534,"ELEMENT_SET_NO":999,"REV_AT_EPOCH":7974,"BSTAR":0,"MEAN_MOTION_DOT":5.0e-8,"MEAN_MOTION_DDOT":0},{"OBJECT_NAME":"GSAT0203 (GALILEO 7)","OBJECT_ID":"2015-017A","EPOCH":"2026-02-27T12:31:05.039904","MEAN_MOTION":1.70475495,"ECCENTRICITY":0.00051612,"INCLINATION":56.8234,"RA_OF_ASC_NODE":344.5881,"ARG_OF_PERICENTER":295.0116,"MEAN_ANOMALY":64.9415,"EPHEMERIS_TYPE":0,"CLASSIFICATION_TYPE":"U","NORAD_CAT_ID":40544,"ELEMENT_SET_NO":999,"REV_AT_EPOCH":6733,"BSTAR":0,"MEAN_MOTION_DOT":-1.03e-6,"MEAN_MOTION_DDOT":0},{"OBJECT_NAME":"GSAT0204 (GALILEO 8)","OBJECT_ID":"2015-017B","EPOCH":"2026-02-27T04:34:27.961824","MEAN_MOTION":1.7047537,"ECCENTRICITY":0.00043897,"INCLINATION":56.8295,"RA_OF_ASC_NODE":344.6151,"ARG_OF_PERICENTER":286.3298,"MEAN_ANOMALY":73.6287,"EPHEMERIS_TYPE":0,"CLASSIFICATION_TYPE":"U","NORAD_CAT_ID":40545,"ELEMENT_SET_NO":999,"REV_AT_EPOCH":3037,"BSTAR":0,"MEAN_MOTION_DOT":-1.02e-6,"MEAN_MOTION_DDOT":0},{"OBJECT_NAME":"GPS BIIF-10","OBJECT_ID":"2015-033A","EPOCH":"2026-03-05T12:20:52.660896","MEAN_MOTION":2.00561575,"ECCENTRICITY":0.0114524,"INCLINATION":54.0638,"RA_OF_ASC_NODE":271.3591,"ARG_OF_PERICENTER":29.0017,"MEAN_ANOMALY":331.6534,"EPHEMERIS_TYPE":0,"CLASSIFICATION_TYPE":"U","NORAD_CAT_ID":40730,"ELEMENT_SET_NO":999,"REV_AT_EPOCH":7791,"BSTAR":0,"MEAN_MOTION_DOT":-1.5e-7,"MEAN_MOTION_DDOT":0},{"OBJECT_NAME":"METEOSAT-11 (MSG-4)","OBJECT_ID":"2015-034A","EPOCH":"2026-03-06T05:26:39.139296","MEAN_MOTION":1.00266672,"ECCENTRICITY":0.00018062,"INCLINATION":2.9422,"RA_OF_ASC_NODE":71.6698,"ARG_OF_PERICENTER":270.7557,"MEAN_ANOMALY":272.5461,"EPHEMERIS_TYPE":0,"CLASSIFICATION_TYPE":"U","NORAD_CAT_ID":40732,"ELEMENT_SET_NO":999,"REV_AT_EPOCH":618,"BSTAR":0,"MEAN_MOTION_DOT":5.7e-7,"MEAN_MOTION_DDOT":0},{"OBJECT_NAME":"GSAT0205 (GALILEO 9)","OBJECT_ID":"2015-045A","EPOCH":"2026-02-12T22:54:15.154848","MEAN_MOTION":1.674108,"ECCENTRICITY":0.03595998,"INCLINATION":53.6403,"RA_OF_ASC_NODE":225.6057,"ARG_OF_PERICENTER":59.9658,"MEAN_ANOMALY":303.5577,"EPHEMERIS_TYPE":0,"CLASSIFICATION_TYPE":"U","NORAD_CAT_ID":40889,"ELEMENT_SET_NO":999,"REV_AT_EPOCH":6421,"BSTAR":0,"MEAN_MOTION_DOT":7.8e-7,"MEAN_MOTION_DDOT":0},{"OBJECT_NAME":"GSAT0206 (GALILEO 10)","OBJECT_ID":"2015-045B","EPOCH":"2026-03-06T05:14:34.715040","MEAN_MOTION":1.70473773,"ECCENTRICITY":0.00037246,"INCLINATION":54.9806,"RA_OF_ASC_NODE":224.4444,"ARG_OF_PERICENTER":50.3393,"MEAN_ANOMALY":309.6334,"EPHEMERIS_TYPE":0,"CLASSIFICATION_TYPE":"U","NORAD_CAT_ID":40890,"ELEMENT_SET_NO":999,"REV_AT_EPOCH":6528,"BSTAR":0,"MEAN_MOTION_DOT":2.0e-7,"MEAN_MOTION_DDOT":0}]
